NUSAT-1 (FRESCO)        
1 41557U 16033B   22269.51261044  .00014231  00000+0  39539-3 0  9991
2 41557  97.3903   7.5397 0010459  22.0076 106.3676 15.36930498352896
BEESAT-4                
1 41619U 16040W   22269.07522092  .00015290  00000+0  47177-3 0  9995
2 41619  97.2065 317.1247 0010612 114.0446 246.1909 15.33603853336131
CAS-2T & KS-1Q          
1 41847U 16066G   22269.46644293  .00000594  00000+0  10018-3 0  9992
2 41847  98.5413 333.9891 0362122 267.6779  88.2913 14.38734245308870
NAYIF-1 (EO-88)         
1 42017U 17008BX  22268.69398544  .00020025  00000+0  54472-3 0  9991
2 42017  97.2597 333.4956 0003568 230.7454 129.3475 15.37559846312465
ZHUHAI-1 02 (CAS-4B)    
1 42759U 17034B   22269.56699488  .00003761  00000+0  22444-3 0  9993
2 42759  43.0176 135.1032 0009952 214.6801 214.4518 15.12546033291661
ZHUHAI-1 01 (CAS-4A)    
1 42761U 17034D   22269.53230738  .00003774  00000+0  22468-3 0  9992
2 42761  43.0169 134.0087 0009641 216.3568 219.9462 15.12625538291664
MAX VALIER SAT          
1 42778U 17036P   22269.39176776  .00007840  00000+0  28581-3 0  9997
2 42778  97.1958 307.0669 0009328 336.5501  23.5313 15.28393759292311
RADFXSAT (FOX-1B)       
1 43017U 17073E   22269.26221983  .00003209  00000+0  24324-3 0  9998
2 43017  97.6601 159.3068 0245430 217.2702 141.1263 14.82064084262046
FOX-1D (AO-92)          
1 43137U 18004AC  22269.12810314  .00009720  00000+0  32569-3 0  9997
2 43137  97.3617 343.4513 0007461  16.3094 343.8386 15.31105734261742
DIWATA-2B               
1 43678U 18084H   22269.50054725  .00000758  00000+0  79988-4 0  9992
2 43678  97.9845  44.0399 0009052 319.2455  40.8045 14.92320365212928
ES'HAIL 2               
1 43700U 18090A   22269.57202082  .00000147  00000+0  00000+0 0  9999
2 43700   0.0159 184.1547 0002149  34.6728  18.2657  1.00270983 14045
FOX-1CLIFF (AO-95)      
1 43770U 18099N   22269.07806020  .00002295  00000+0  20493-3 0  9990
2 43770  97.6126 332.7931 0012491 302.0965  57.9043 14.96851690208067
ITASAT 1                
1 43786U 18099AE  22269.46443435  .00002514  00000+0  22347-3 0  9991
2 43786  97.6144 334.1392 0013045 291.3600  68.6230 14.96937009208160
JY1SAT (JO-97)          
1 43803U 18099AX  22269.44582072  .00002580  00000+0  22583-3 0  9995
2 43803  97.6098 333.9105 0013340 288.9605  71.0171 14.97521012208180
UWE-4                   
1 43880U 18111E   22269.50585122  .00002613  00000+0  22225-3 0  9991
2 43880  97.6597 174.0336 0011819 352.0075   8.0958 14.98642631204835
NEXUS (FO-99)           
1 43937U 19003F   22269.36262622  .00013024  00000+0  40976-3 0  9997
2 43937  97.1228 298.8907 0020751 147.9339 212.3171 15.32858582205428
PSAT2 (NO-104)          
1 44354U 19036R   22264.60769923  .00099847 -40975-5  73572-3 0  9992
2 44354  28.5223 226.9788 0193775 342.2307  17.1592 15.50427783179564
JAISAT-1                
1 44419U 19038F   22269.16068489  .00008135  00000+0  39333-3 0  9996
2 44419  97.6461 240.2450 0020146 138.0652 222.2129 15.18703492178334
DUCHIFAT-3              
1 44854U 19089C   22269.26403380  .00003829  00000+0  29492-3 0  9999
2 44854  36.9646 222.4454 0009084 315.7858  44.2152 15.01660423153096
CAS-6 (TIANQIN 1)       
1 44881U 19093C   22269.46502369  .00000502  00000+0  70132-4 0  9996
2 44881  97.8873 347.2015 0014107 213.4644 146.5695 14.81825681149732
RS-44 & BREEZE-KM R/B   
1 44909U 19096E   22269.20296262  .00000039  00000+0  10337-3 0  9999
2 44909  82.5242 163.3597 0218401  84.1610 278.4341 12.79715118128395
ORBITAL FACTORY 2 (OF-2)
1 45113U 19071C   22269.28918691  .00031659  00000+0  55101-3 0  9995
2 45113  51.6355 281.4988 0007041 170.0888 190.0241 15.50461866148995
HUSKYSAT-1 (HO-107)     
1 45119U 19071J   22269.30970248  .00027284  00000+0  50358-3 0  9998
2 45119  51.6356 282.3533 0007350 167.0419 193.0760 15.48868238148975
BY70-2                  
1 45857U 20042B   22269.47899963  .00006270  00000+0  81721-3 0  9999
2 45857  97.9501 345.4023 0011601 144.9150 215.2841 14.80879130120407
SALSAT                  
1 46495U 20068K   22269.50989556  .00002675  00000+0  19307-3 0  9994
2 46495  97.7366 210.8942 0014773 298.4417  61.5320 15.04902306109389
BY70-3                  
1 46839U 20079N   22269.49098118  .00027120  00000+0  55327-3 0  9995
2 46839  97.1890 340.4834 0004309 333.7392 152.4113 15.46166669105832
RADFXSAT-2 (AO-109)     
1 47311U 21002C   22269.37410480  .00007360  00000+0  28383-3 0  9991
2 47311  60.6864 341.9431 0033652  42.9658 317.4050 15.26749299 93866
UVSQ-SAT                
1 47438U 21006AB  22269.12404452  .00005925  00000+0  30544-3 0  9997
2 47438  97.4274 326.0787 0010045 286.8884  73.1248 15.16698706 92531
DIY-1 (ARDUIQUBE)       
1 47963U 21022AH  22269.21700806  .00017308  00000+0  89400-3 0  9993
2 47963  97.5196 169.5358 0017251 137.5075 222.7496 15.16233153 82203
XW-3 (CAS-9)            
1 50466U 21131B   22269.51554469  .00000204  00000+0  81314-4 0  9995
2 50466  98.5749 346.6946 0004455 193.2624 166.8447 14.38529089 39443
TEVEL-3                 
1 50988U 22002E   22269.49522579  .00006895  00000+0  36615-3 0  9991
2 50988  97.4735 334.8189 0010830  76.9216  50.4401 15.15585179 38716
TEVEL-8                 
1 50989U 22002F   22269.50336997  .00007119  00000+0  37844-3 0  9996
2 50989  97.4749 334.8555 0010875  76.4054  48.4300 15.15533782 38711
TEVEL-5                 
1 50998U 22002Q   22269.48302667  .00007050  00000+0  36886-3 0  9999
2 50998  97.4718 334.9578 0012187  73.2081  51.5277 15.16090437 38721
TEVEL-6                 
1 50999U 22002R   22269.48308031  .00007029  00000+0  36771-3 0  9990
2 50999  97.4728 334.9568 0012256  73.1649  55.4007 15.16095571 38726
TEVEL-1                 
1 51013U 22002AF  22269.49872891  .00007000  00000+0  37192-3 0  9996
2 51013  97.4730 334.7955 0010687  77.9515  47.2593 15.15558983 38713
TEVEL-7                 
1 51062U 22002CG  22269.43977953  .00007144  00000+0  37986-3 0  9999
2 51062  97.4743 334.7774 0010830  77.0532  50.8272 15.15526049 38701
TEVEL-4                 
1 51063U 22002CH  22269.50620728  .00007147  00000+0  38012-3 0  9997
2 51063  97.4742 334.8384 0010785  76.7177  47.5465 15.15516355 38716
TEVEL-2                 
1 51069U 22002CP  22269.49731733  .00006983  00000+0  37084-3 0  9995
2 51069  97.4728 334.8052 0010709  77.5653  53.0657 15.15579070 38710
GREENCUBE               
1 53106U 22080B   22267.36993488 -.00000003  00000+0  00000+0 0  9998
2 53106  70.1616  52.0631 0008654 241.1549 118.8242  6.42557865  4675
YUZGU 9 (RS3S)          
1 53308U 98067TT  22269.24332698  .00052037  00000+0  75637-3 0  9994
2 53308  51.6404 194.8130 0002044 196.6473 163.4451 15.55255252 10410
YUZGU 7 (RS1S)          
1 53309U 98067TU  22269.49717967  .00053172  00000+0  76722-3 0  9995
2 53309  51.6396 193.5072 0001534 220.8884 139.1992 15.55446014 10408
YUZGU 11 (RS5S)         
1 53310U 98067TV  22269.49999793  .00050390  00000+0  73204-3 0  9997
2 53310  51.6402 193.5288 0001405 215.1652 144.9246 15.55284507 10430
YUZGU 12 (RS6S)         
1 53311U 98067TW  22269.23490365  .00054111  00000+0  77526-3 0  9997
2 53311  51.6395 194.7543 0002418 187.9374 172.1579 15.55629921 10414
TSIOLKOVSKY-RYAZAN 1 (*)
1 53312U 98067TX  22269.49526384  .00052132  00000+0  75213-3 0  9999
2 53312  51.6400 193.4961 0001484 229.3763 130.7100 15.55458019 10392
TSIOLKOVSKY-RYAZAN 2 (*)
1 53313U 98067TY  22269.49342188  .00050543  00000+0  72850-3 0  9996
2 53313  51.6399 193.4842 0001120 214.4879 145.6040 15.55497454 10448
YUZGU 10 (RS4S)         
1 53321U 98067TZ  22269.50023155  .00050724  00000+0  73489-3 0  9997
2 53321  51.6405 193.5321 0001785 202.6364 157.4549 15.55354986 10440
RS29S (SXC3-2110 CYCLO*)
1 53373U 22096D   22269.50649888  .00009508  00000+0  38186-3 0  9999
2 53373  97.4315 170.6162 0003341  57.7429 117.1212 15.25163352  7342
RS32S (SXC3-212 MONITO*)
1 53374U 22096E   22269.49049723  .00009571  00000+0  38307-3 0  9995
2 53374  97.4316 170.6069 0003207  51.0027  54.9142 15.25277709  7344
RS34S (SXC3-218 KUZBAS*)
1 53375U 22096F   22269.55586282  .00008344  00000+0  33507-3 0  9993
2 53375  97.4314 170.6718 0003060  47.2995  54.6959 15.25205350  7359
RS23S (SXC3-21 UTMN)    
1 53376U 22096G   22269.55501169  .00008373  00000+0  33606-3 0  9997
2 53376  97.4306 170.6723 0003078  44.7091  57.8323 15.25221937  7354
RS28S (SXC3-214 MIET-A*)
1 53377U 22096H   22269.55429418  .00007840  00000+0  31461-3 0  9999
2 53377  97.4317 170.6754 0002927  50.9410  53.1524 15.25253758  7355
RS26S (KAI-1)           
1 53378U 22096J   22269.55373565  .00006863  00000+0  27603-3 0  9998
2 53378  97.4320 170.6744 0002634  47.3925  55.9555 15.25223379  7355
RS19S (SXC3-219 ISOI)   
1 53381U 22096M   22269.54071691  .00008211  00000+0  32501-3 0  9998
2 53381  97.4316 170.6932 0002096 303.0100 163.1483 15.25700450  7354
RS21S (CUBESX-HSE-2)    
1 53383U 22096P   22269.48538250  .00007302  00000+0  28904-3 0  9994
2 53383  97.4311 170.6429 0002300 296.6190 235.4918 15.25738890  7340
RS30S (SXC3-217 SIREN)  
1 53384U 22096Q   22269.48545733  .00007418  00000+0  29359-3 0  9992
2 53384  97.4320 170.6436 0002411 294.1145 240.3009 15.25735554  7345
RS20S (GEOSCAN-EDELVEIS)
1 53385U 22096R   22269.52253645  .00009890  00000+0  38668-3 0  9995
2 53385  97.4313 170.6956 0002671 297.8777 116.1469 15.26051397  7385
RS33S (SXC3-215 VIZARD) 
1 53386U 22096S   22269.52352058  .00012195  00000+0  47080-3 0  9994
2 53386  97.4308 170.7152 0003853 299.9359 165.5909 15.26415196  7378
